CZ-6A DEB               
1 54326U 22151BV  22333.97557613  .00050682  00000+0  49739-2 0  9991
2 54326  99.0852 341.9096 0289843 244.0025 113.1061 14.65470290  2056
CZ-6A DEB               
1 54327U 22151BW  22334.26313255  .00000335  00000+0  22000-3 0  9990
2 54327  98.7886 338.7651 0051167  35.2600 325.1937 14.07926139  2002
CZ-6A DEB               
1 54328U 22151BX  22334.27240813  .00004019  00000+0  98856-3 0  9996
2 54328  98.7293 339.5660 0151863 232.4344 126.2973 14.46108118  2062
CZ-6A DEB               
1 54329U 22151BY  22334.23903750  .00002302  00000+0  52065-3 0  9994
2 54329  98.7364 339.6547 0169592 166.6673 193.9085 14.48749031  2060
CZ-6A DEB               
1 54330U 22151BZ  22334.07102110  .00001474  00000+0  73342-3 0  9999
2 54330  98.8027 338.9331 0063104 108.9711 251.8316 14.17497690  1995
CZ-6A DEB               
1 54331U 22151CA  22333.96070127  .00000540  00000+0  42307-3 0  9999
2 54331  98.7983 338.0863 0126637  39.3965 321.6323 13.92436792  1943
CZ-6A DEB               
1 54332U 22151CB  22334.08183618  .00001148  00000+0  59178-3 0  9993
2 54332  98.8005 338.9056 0043323 101.4886 259.1158 14.16633319  2006
CZ-6A DEB               
1 54333U 22151CC  22334.27744379  .00003887  00000+0  11126-2 0  9994
2 54333  98.7076 339.2664 0138574 243.9454 114.7413 14.40155714  2082
CZ-6A DEB               
1 54334U 22151CD  22334.21522320  .00003971  00000+0  11544-2 0  9997
2 54334  98.7091 339.1943 0136361 244.8179 113.8816 14.39576017  2072
CZ-6A DEB               
1 54335U 22151CE  22334.24793768  .00000541  00000+0  33258-3 0  9994
2 54335  98.7962 338.8258 0051546  54.3063 306.2889 14.09114483  2038
CZ-6A DEB               
1 54336U 22151CF  22334.07405583  .00000418  00000+0  27634-3 0  9995
2 54336  98.8079 338.6336 0061709  41.8411 318.7451 14.06021736  2010
CZ-6A DEB               
1 54337U 22151CG  22334.41003234  .00000113  00000+0  91251-4 0  9990
2 54337  98.8211 339.0799 0052279  31.9216 328.5103 14.07552359  2061
CZ-6A DEB               
1 54338U 22151CH  22334.24283800  .00000818  00000+0  48855-3 0  9994
2 54338  98.8306 339.0301 0043349  33.2822 327.1061 14.09517327  2046
CZ-6A DEB               
1 54339U 22151CJ  22333.95861336  .00000268  00000+0  17650-3 0  9996
2 54339  98.8076 338.6201 0044295  41.3470 319.1040 14.09530025  2009
CZ-6A DEB               
1 54340U 22151CK  22334.28299914  .00002268  00000+0  50452-3 0  9991
2 54340  98.7112 339.6129 0156104 215.3568 143.7196 14.50769284  2083
CZ-6A DEB               
1 54341U 22151CL  22334.06706948  .00000797  00000+0  40698-3 0  9994
2 54341  98.8055 338.9523 0051567 109.7301 250.9446 14.17799558  2000
CZ-6A DEB               
1 54342U 22151CM  22334.40656049 -.00000002  00000+0  23900-4 0  9997
2 54342  98.7995 338.9621 0053284  42.2404 318.2851 14.07819168  2035
CZ-6A DEB               
1 54343U 22151CN  22334.24080020  .00000185  00000+0  12902-3 0  9990
2 54343  98.8138 338.9347 0043011  37.5904 322.8260 14.09665409  2012
CZ-6A DEB               
1 54344U 22151CP  22334.27933010 -.00000061  00000+0 -10666-4 0  9991
2 54344  98.8225 338.9329 0057509  37.8731 322.6462 14.06654563  2016
CZ-6A DEB               
1 54345U 22151CQ  22334.23885516  .00002708  00000+0  12311-2 0  9990
2 54345  98.7057 338.6488 0078399 284.2848  74.9633 14.20985968  2030
CZ-6A DEB               
1 54346U 22151CR  22334.45593483  .00003213  00000+0  75687-3 0  9992
2 54346  98.6514 339.3600 0154353 226.5010 132.3267 14.48009846  2109
CZ-6A DEB               
1 54347U 22151CS  22333.95027291  .00000328  00000+0  14396-3 0  9990
2 54347  98.7131 338.5885 0107124 270.2255  88.6651 14.27143773  2007
CZ-6A DEB               
1 54348U 22151CT  22334.25361101  .00000633  00000+0  24308-3 0  9999
2 54348  98.6945 338.8941 0107393 258.5812 100.3292 14.30890035  2054
CZ-6A DEB               
1 54349U 22151CU  22334.25614417  .00000434  00000+0  19123-3 0  9999
2 54349  98.7109 338.8217 0112594 275.6454  83.1895 14.25132740  2047
CZ-6A DEB               
1 54350U 22151CV  22334.43795788  .00000232  00000+0  99197-4 0  9998
2 54350  98.8161 339.8335 0069449 186.5609 173.4671 14.32876476  2080
CZ-6A DEB               
1 54351U 22151CW  22334.43949922  .00007271  00000+0  46190-2 0  9993
2 54351  99.0211 339.9413 0203681 327.6065  31.2725 13.94411765  2017
CZ-6A DEB               
1 54352U 22151CX  22334.26576627  .00004157  00000+0  10267-2 0  9999
2 54352  99.1020 341.5692 0202106 259.4842  98.3519 14.41086011  2077
CZ-6A DEB               
1 54353U 22151CY  22334.21654136  .00003463  00000+0  10563-2 0  9995
2 54353  99.1408 341.5150 0178641 268.0543  90.0174 14.33881674  2050
CZ-6A DEB               
1 54354U 22151CZ  22334.25417045  .00003965  00000+0  11133-2 0  9997
2 54354  98.8139 339.7501 0190368 264.5559  93.3885 14.36464757  2063
CZ-6A DEB               
1 54355U 22151DA  22334.47202067  .00148440  00000+0  71705-2 0  9997
2 54355  98.8001 341.4331 0293021 212.6112 145.6709 14.87690877  2169
CZ-6A DEB               
1 54356U 22151DB  22334.07245534  .00002185  00000+0  95823-3 0  9993
2 54356  98.9600 339.9888 0080380 278.1708  81.0358 14.23001090  2015
CZ-6A DEB               
1 54357U 22151DC  22334.25784853  .00215695  00000+0  69862-2 0  9991
2 54357  99.1658 343.5785 0311498 217.6545 140.2500 14.95666995  2144
CZ-6A DEB               
1 54358U 22151DD  22334.22447559  .00003219  00000+0  71841-3 0  9996
2 54358  98.5515 338.6087 0159687 223.2141 135.6433 14.49951429  2089
CZ-6A DEB               
1 54359U 22151DE  22334.27653454  .00005710  00000+0  13950-2 0  9999
2 54359  99.0792 341.4223 0212352 262.3269  95.3757 14.40257265  2057
CZ-6A DEB               
1 54360U 22151DF  22334.23805879  .00000729  00000+0  37919-3 0  9994
2 54360  98.6541 338.1988 0094003 301.4619  57.7393 14.15455911  2050
EOS-6 (OCEANSAT-3)      
1 54361U 22158A   22334.53406030 -.00000183  00000+0 -39433-4 0  9991
2 54361  98.3535  69.2637 0011118 217.0854 160.8300 14.45830448   612
2022-158B               
1 54362U 22158B   22334.34046183  .00004564  00000+0  23490-3 0  9990
2 54362  97.4618  69.6339 0022850 234.2640 159.8830 15.16704297   603
THYBOLT 1               
1 54363U 22158C   22334.26618510  .00009939  00000+0  47559-3 0  9994
2 54363  97.4491  69.4221 0010494 246.6624 135.9185 15.19123761   591
THYBOLT 2               
1 54364U 22158D   22334.26627819  .00010234  00000+0  48946-3 0  9998
2 54364  97.4499  69.4203 0010575 244.3248 138.9043 15.19134575   598
2022-158E               
1 54365U 22158E   22334.26567745  .00009216  00000+0  43808-3 0  9990
2 54365  97.4442  69.4140 0010818 255.4674 127.9044 15.19373455   594
2022-158F               
1 54366U 22158F   22334.33193984  .00007122  00000+0  33737-3 0  9993
2 54366  97.4424  69.4765 0009576 255.6320 133.1178 15.19588460   600
2022-158G               
1 54367U 22158G   22334.33244218  .00005333  00000+0  25048-3 0  9999
2 54367  97.4467  69.4913 0007495 253.7565 144.0028 15.20019610   592
2022-158H               
1 54368U 22158H   22334.53473475  .00004862  00000+0  22811-3 0  9992
2 54368  97.4491  69.6941 0007455 262.7152 162.5848 15.20105202   634
2022-158J               
1 54369U 22158J   22334.33288229  .00005551  00000+0  25903-3 0  9993
2 54369  97.4481  69.4953 0007531 267.0982 136.0841 15.20229778   600
2022-158K               
1 54370U 22158K   22334.33251229  .00006176  00000+0  28647-3 0  9997
2 54370  97.4497  69.4963 0008102 275.2458 128.1145 15.20385711   603
DRAGON CRS-26           
1 54371U 22159A   22333.52847407  .00014988  00000+0  26675-3 0  9997
2 54371  51.6440 237.4939 0007115 127.5001  63.4890 15.50338107370822
2022-160A               
1 54372U 22160A   22334.08262964  .00002424  00000+0  10000-3 0  9998
2 54372  34.9980 211.6701 0008589 300.4127 222.3757 15.23677824   396
2022-160B               
1 54373U 22160B   22334.41388419  .00097455  00000+0  39508-2 0  9991
2 54373  34.9899 209.5870 0011330 288.2835 249.3951 15.23308420   440
2022-160C               
1 54374U 22160C   22334.41350309  .00034091  00000+0  13909-2 0  9993
2 54374  34.9982 209.5911 0008338 287.8469 249.7222 15.23433562   409
2022-160D               
1 54375U 22160D   22333.95563657  .00058598  00000+0  23759-2 0  9996
2 54375  34.9978 212.4699 0009896 289.4194 253.6361 15.23501612   370
2022-160E               
1 54376U 22160E   22334.41423583  .00058145  00000+0  23869-2 0  9992
2 54376  34.9995 209.5979 0006199 275.6436 262.3701 15.23115020   444
COSMOS 2564 [GLONASS-M] 
1 54377U 22161A   22334.59192306 -.00000013  00000+0  00000+0 0  9990
2 54377  64.7813 235.8636 0005880 270.3736  98.7342  2.12997465    41
FREGAT R/B              
1 54378U 22161B   22332.88538517  .00000006  00000+0  00000+0 0  9990
2 54378  64.7543 235.8312 0069964  61.3586  78.3433  2.10629160    00
SHENZHOU-15             
1 54379U 22162A   22334.34079041  .00022687  00000+0  28227-3 0  9991
2 54379  41.4767 287.1082 0005690 339.5685 151.7234 15.59396524 90748
2022-162B               
1 54380U 22162B   22334.26500801  .00764714  75881-5  59471-3 0  9991
2 54380  41.4775 287.3684 0108110 127.2175  17.6997 16.02202860   101
NOAA 1 [-]              
1 04793U 70106A   22334.41152479 -.00000047  00000+0 -22167-4 0  9998
2 04793 101.5362  33.9057 0031417 359.7624  12.0873 12.54009401378399
NOAA 2 (ITOS-D) [-]     
1 06235U 72082A   22334.38078399 -.00000025  00000+0  13647-3 0  9997
2 06235 101.9733 317.7603 0004128 115.2903  63.6155 12.53154256292750
NOAA 3 [-]              
1 06920U 73086A   22334.39747259 -.00000023  00000+0  17502-3 0  9994
2 06920 102.2279 316.5379 0006708 346.3593 174.1856 12.40350646221367
NOAA 4 [-]              
1 07529U 74089A   22334.43355983 -.00000032  00000+0  87338-4 0  9993
2 07529 101.9351 314.6773 0008954 145.0923   9.7208 12.53162793197334
